{
  "type": "FeatureCollection",
  "features": [
    {
      "type": "Feature",
      "properties": {
        "norad_id": 66644,
        "name": "STARLINK-35938",
        "group": "last-30-days",
        "lat": 35.58153144898815,
        "lon": -177.05953606178878,
        "alt_km": 413.2148899712629,
        "timestamp": "2025-12-20T09:36:00.351629+00:00",
        "meta_object_name": "STARLINK-35938",
        "meta_object_id": "2025-271AD",
        "meta_epoch": "2025-12-18T20:14:46.464576",
        "meta_mean_motion": 15.49333178,
        "meta_eccentricity": 5.997e-05,
        "meta_inclination": 53.1591,
        "meta_ra_of_asc_node": 157.9473,
        "meta_arg_of_pericenter": 93.6054,
        "meta_mean_anomaly": 266.5024,
        "meta_ephemeris_type": 0,
        "meta_classification_type": "U",
        "meta_norad_cat_id": 66644,
        "meta_element_set_no": 999,
        "meta_rev_at_epoch": 515,
        "meta_bstar": 0.0013201346,
        "meta_mean_motion_dot": 0.00073731,
        "meta_mean_motion_ddot": 0,
        "tle_line1": "1 66644U 25271AD  25352.84359334  .00073731  00000+0  13201-2 0  9998",
        "tle_line2": "2 66644  53.1591 157.9473 0000599  93.6054 266.5024 15.49333178  5158"
      },
      "geometry": {
        "type": "Point",
        "coordinates": [
          -177.05953606178878,
          35.58153144898815
        ]
      }
    },
    {
      "type": "Feature",
      "properties": {
        "norad_id": 66645,
        "name": "SHENZHOU-22",
        "group": "last-30-days",
        "lat": -0.7583850758295765,
        "lon": -30.668662200365,
        "alt_km": 389.62533147380145,
        "timestamp": "2025-12-20T09:36:00.351639+00:00",
        "meta_object_name": "SHENZHOU-22",
        "meta_object_id": "2025-272A",
        "meta_epoch": "2025-12-19T22:50:46.623264",
        "meta_mean_motion": 15.5948412,
        "meta_eccentricity": 0.00077419,
        "meta_inclination": 41.4684,
        "meta_ra_of_asc_node": 332.9127,
        "meta_arg_of_pericenter": 94.7688,
        "meta_mean_anomaly": 265.4034,
        "meta_ephemeris_type": 0,
        "meta_classification_type": "U",
        "meta_norad_cat_id": 66645,
        "meta_element_set_no": 999,
        "meta_rev_at_epoch": 26357,
        "meta_bstar": 0.0002198914,
        "meta_mean_motion_dot": 0.00017657,
        "meta_mean_motion_ddot": 0,
        "tle_line1": "1 66645U 25272A   25353.95192851  .00017657  00000+0  21989-3 0  9990",
        "tle_line2": "2 66645  41.4684 332.9127 0007741  94.7688 265.4034 15.59484120263570"
      },
      "geometry": {
        "type": "Point",
        "coordinates": [
          -30.668662200365,
          -0.7583850758295765
        ]
      }
    },
    {
      "type": "Feature",
      "properties": {
        "norad_id": 66647,
        "name": "COSMOS 2597 (RODNIK-S 22)",
        "group": "last-30-days",
        "lat": 38.092652453195576,
        "lon": 95.7651591248388,
        "alt_km": 1498.9842039411415,
        "timestamp": "2025-12-20T09:36:00.351650+00:00",
        "meta_object_name": "COSMOS 2597 (RODNIK-S 22)",
        "meta_object_id": "2025-273A",
        "meta_epoch": "2025-12-20T03:02:24.309600",
        "meta_mean_motion": 12.41952061,
        "meta_eccentricity": 0.0007627,
        "meta_inclination": 82.4993,
        "meta_ra_of_asc_node": 281.8621,
        "meta_arg_of_pericenter": 269.1663,
        "meta_mean_anomaly": 90.8542,
        "meta_ephemeris_type": 0,
        "meta_classification_type": "U",
        "meta_norad_cat_id": 66647,
        "meta_element_set_no": 999,
        "meta_rev_at_epoch": 305,
        "meta_bstar": 8.5432e-05,
        "meta_mean_motion_dot": 2.1e-07,
        "meta_mean_motion_ddot": 0,
        "tle_line1": "1 66647U 25273A   25354.12667025  .00000021  00000+0  85432-4 0  9994",
        "tle_line2": "2 66647  82.4993 281.8621 0007627 269.1663  90.8542 12.41952061  3056"
      },
      "geometry": {
        "type": "Point",
        "coordinates": [
          95.7651591248388,
          38.092652453195576
        ]
      }
    },
    {
      "type": "Feature",
      "properties": {
        "norad_id": 66648,
        "name": "COSMOS 2598 (RODNIK-S 23)",
        "group": "last-30-days",
        "lat": -32.289032178001904,
        "lon": 106.45652652424099,
        "alt_km": 1492.4943516977974,
        "timestamp": "2025-12-20T09:36:00.351662+00:00",
        "meta_object_name": "COSMOS 2598 (RODNIK-S 23)",
        "meta_object_id": "2025-273B",
        "meta_epoch": "2025-12-20T04:35:50.767584",
        "meta_mean_motion": 12.43233481,
        "meta_eccentricity": 0.0008089,
        "meta_inclination": 82.5032,
        "meta_ra_of_asc_node": 281.8136,
        "meta_arg_of_pericenter": 219.0733,
        "meta_mean_anomaly": 140.9764,
        "meta_ephemeris_type": 0,
        "meta_classification_type": "U",
        "meta_norad_cat_id": 66648,
        "meta_element_set_no": 999,
        "meta_rev_at_epoch": 306,
        "meta_bstar": 6.4325e-05,
        "meta_mean_motion_dot": 1.9e-07,
        "meta_mean_motion_ddot": 0,
        "tle_line1": "1 66648U 25273B   25354.19155981  .00000019  00000+0  64325-4 0  9990",
        "tle_line2": "2 66648  82.5032 281.8136 0008089 219.0733 140.9764 12.43233481  3062"
      },
      "geometry": {
        "type": "Point",
        "coordinates": [
          106.45652652424099,
          -32.289032178001904
        ]
      }
    },
    {
      "type": "Feature",
      "properties": {
        "norad_id": 66649,
        "name": "COSMOS 2599 (RODNIK-S 24)",
        "group": "last-30-days",
        "lat": 76.8843806071618,
        "lon": 67.32049787104035,
        "alt_km": 1499.106989780149,
        "timestamp": "2025-12-20T09:36:00.351673+00:00",
        "meta_object_name": "COSMOS 2599 (RODNIK-S 24)",
        "meta_object_id": "2025-273C",
        "meta_epoch": "2025-12-20T03:15:16.977888",
        "meta_mean_motion": 12.41150955,
        "meta_eccentricity": 0.000627,
        "meta_inclination": 82.5049,
        "meta_ra_of_asc_node": 281.8846,
        "meta_arg_of_pericenter": 260.3777,
        "meta_mean_anomaly": 99.6593,
        "meta_ephemeris_type": 0,
        "meta_classification_type": "U",
        "meta_norad_cat_id": 66649,
        "meta_element_set_no": 999,
        "meta_rev_at_epoch": 305,
        "meta_bstar": -6.8262e-06,
        "meta_mean_motion_dot": 9e-08,
        "meta_mean_motion_ddot": 0,
        "tle_line1": "1 66649U 25273C   25354.13561317  .00000009  00000+0 -68262-5 0  9994",
        "tle_line2": "2 66649  82.5049 281.8846 0006270 260.3777  99.6593 12.41150955  3057"
      },
      "geometry": {
        "type": "Point",
        "coordinates": [
          67.32049787104035,
          76.8843806071618
        ]
      }
    },
    {
      "type": "Feature",
      "properties": {
        "norad_id": 66650,
        "name": "BEE-1000",
        "group": "last-30-days",
        "lat": 2.263627839813335,
        "lon": -78.86088394499171,
        "alt_km": 601.0629991712121,
        "timestamp": "2025-12-20T09:36:00.351683+00:00",
        "meta_object_name": "BEE-1000",
        "meta_object_id": "2025-274A",
        "meta_epoch": "2025-12-19T12:39:39.418848",
        "meta_mean_motion": 14.91682536,
        "meta_eccentricity": 0.0010694,
        "meta_inclination": 97.7401,
        "meta_ra_of_asc_node": 280.5907,
        "meta_arg_of_pericenter": 226.1332,
        "meta_mean_anomaly": 133.9004,
        "meta_ephemeris_type": 0,
        "meta_classification_type": "U",
        "meta_norad_cat_id": 66650,
        "meta_element_set_no": 999,
        "meta_rev_at_epoch": 341,
        "meta_bstar": 0.00010224,
        "meta_mean_motion_dot": 9.73e-06,
        "meta_mean_motion_ddot": 0,
        "tle_line1": "1 66650U 25274A   25353.52753957  .00000973  00000+0  10224-3 0  9994",
        "tle_line2": "2 66650  97.7401 280.5907 0010694 226.1332 133.9004 14.91682536  3416"
      },
      "geometry": {
        "type": "Point",
        "coordinates": [
          -78.86088394499171,
          2.263627839813335
        ]
      }
    },
    {
      "type": "Feature",
      "properties": {
        "norad_id": 66651,
        "name": "2025-274B",
        "group": "last-30-days",
        "lat": 11.315080948830003,
        "lon": -80.11002081144245,
        "alt_km": 600.2444062045797,
        "timestamp": "2025-12-20T09:36:00.351694+00:00",
        "meta_object_name": "2025-274B",
        "meta_object_id": "2025-274B",
        "meta_epoch": "2025-12-20T01:30:00.907200",
        "meta_mean_motion": 14.91844978,
        "meta_eccentricity": 0.0011009,
        "meta_inclination": 97.7396,
        "meta_ra_of_asc_node": 281.118,
        "meta_arg_of_pericenter": 223.126,
        "meta_mean_anomaly": 136.9097,
        "meta_ephemeris_type": 0,
        "meta_classification_type": "U",
        "meta_norad_cat_id": 66651,
        "meta_element_set_no": 999,
        "meta_rev_at_epoch": 349,
        "meta_bstar": 0.00022408,
        "meta_mean_motion_dot": 2.209e-05,
        "meta_mean_motion_ddot": 0,
        "tle_line1": "1 66651U 25274B   25354.06251050  .00002209  00000+0  22408-3 0  9993",
        "tle_line2": "2 66651  97.7396 281.1180 0011009 223.1260 136.9097 14.91844978  3491"
      },
      "geometry": {
        "type": "Point",
        "coordinates": [
          -80.11002081144245,
          11.315080948830003
        ]
      }
    }
  ]
}